STARLINK-32431          
1 61256U 24175P   26068.62477962  .00001903  00000+0  76409-4 0  9996
2 61256  53.1608 194.3378 0001135  61.6601 298.4514 15.30183964 81440
TEVEL2-3                
1 63218U 25052J   26068.64540225  .00020365  00000+0  69446-3 0  9991
2 63218  97.3994 324.7775 0004761 105.7353 254.4413 15.30377031 54855
